[{"OBJECT_NAME":"GSAT-8","OBJECT_ID":"2011-022A","EPOCH":"2026-03-05T04:57:38.614752","MEAN_MOTION":1.00272663,"ECCENTRICITY":0.00072844,"INCLINATION":1.8623,"RA_OF_ASC_NODE":83.1475,"ARG_OF_PERICENTER":215.5493,"MEAN_ANOMALY":353.7044,"EPHEMERIS_TYPE":0,"CLASSIFICATION_TYPE":"U","NORAD_CAT_ID":37605,"ELEMENT_SET_NO":999,"REV_AT_EPOCH":5217,"BSTAR":0,"MEAN_MOTION_DOT":7.7e-7,"MEAN_MOTION_DDOT":0},{"OBJECT_NAME":"ST-2","OBJECT_ID":"2011-022B","EPOCH":"2026-03-05T04:13:38.615232","MEAN_MOTION":1.00268226,"ECCENTRICITY":0.00019497,"INCLINATION":0.0205,"RA_OF_ASC_NODE":228.5191,"ARG_OF_PERICENTER":131.5763,"MEAN_ANOMALY":314.2064,"EPHEMERIS_TYPE":0,"CLASSIFICATION_TYPE":"U","NORAD_CAT_ID":37606,"ELEMENT_SET_NO":999,"REV_AT_EPOCH":5423,"BSTAR":0,"MEAN_MOTION_DOT":-2.19e-6,"MEAN_MOTION_DDOT":0},{"OBJECT_NAME":"ZHONGXING-10","OBJECT_ID":"2011-026A","EPOCH":"2026-03-05T00:22:55.170048","MEAN_MOTION":1.00269049,"ECCENTRICITY":0.0002695,"INCLINATION":0.7778,"RA_OF_ASC_NODE":85.5599,"ARG_OF_PERICENTER":262.1488,"MEAN_ANOMALY":266.2375,"EPHEMERIS_TYPE":0,"CLASSIFICATION_TYPE":"U","NORAD_CAT_ID":37677,"ELEMENT_SET_NO":999,"REV_AT_EPOCH":5395,"BSTAR":0,"MEAN_MOTION_DOT":-1.96e-6,"MEAN_MOTION_DDOT":0},{"OBJECT_NAME":"SES-3","OBJECT_ID":"2011-035A","EPOCH":"2026-03-05T04:57:02.333664","MEAN_MOTION":1.00272262,"ECCENTRICITY":0.00035791,"INCLINATION":1.0579,"RA_OF_ASC_NODE":84.2971,"ARG_OF_PERICENTER":267.1143,"MEAN_ANOMALY":142.7791,"EPHEMERIS_TYPE":0,"CLASSIFICATION_TYPE":"U","NORAD_CAT_ID":37748,"ELEMENT_SET_NO":999,"REV_AT_EPOCH":5355,"BSTAR":0,"MEAN_MOTION_DOT":-1.1e-6,"MEAN_MOTION_DDOT":0},{"OBJECT_NAME":"KAZSAT-2","OBJECT_ID":"2011-035B","EPOCH":"2026-03-04T12:20:31.543872","MEAN_MOTION":1.00272426,"ECCENTRICITY":5.455e-5,"INCLINATION":0.0172,"RA_OF_ASC_NODE":123.1438,"ARG_OF_PERICENTER":192.8375,"MEAN_ANOMALY":117.9108,"EPHEMERIS_TYPE":0,"CLASSIFICATION_TYPE":"U","NORAD_CAT_ID":37749,"ELEMENT_SET_NO":999,"REV_AT_EPOCH":5234,"BSTAR":0,"MEAN_MOTION_DOT":-2.09e-6,"MEAN_MOTION_DDOT":0},{"OBJECT_NAME":"BREEZE-M R/B","OBJECT_ID":"2011-035D","EPOCH":"2026-03-04T20:04:51.616992","MEAN_MOTION":1.12713889,"ECCENTRICITY":0.07719349,"INCLINATION":9.2492,"RA_OF_ASC_NODE":35.1371,"ARG_OF_PERICENTER":62.172,"MEAN_ANOMALY":86.5433,"EPHEMERIS_TYPE":0,"CLASSIFICATION_TYPE":"U","NORAD_CAT_ID":37751,"ELEMENT_SET_NO":999,"REV_AT_EPOCH":6020,"BSTAR":0,"MEAN_MOTION_DOT":-2.02e-6,"MEAN_MOTION_DDOT":0},{"OBJECT_NAME":"BEIDOU-2 IGSO-4","OBJECT_ID":"2011-038A","EPOCH":"2026-03-04T15:39:53.348256","MEAN_MOTION":1.00265629,"ECCENTRICITY":0.0154496,"INCLINATION":54.5895,"RA_OF_ASC_NODE":166.6175,"ARG_OF_PERICENTER":230.9812,"MEAN_ANOMALY":94.2035,"EPHEMERIS_TYPE":0,"CLASSIFICATION_TYPE":"U","NORAD_CAT_ID":37763,"ELEMENT_SET_NO":999,"REV_AT_EPOCH":5359,"BSTAR":0,"MEAN_MOTION_DOT":-1.06e-6,"MEAN_MOTION_DDOT":0},{"OBJECT_NAME":"ASTRA 1N","OBJECT_ID":"2011-041A","EPOCH":"2026-03-05T05:31:51.496896","MEAN_MOTION":1.0027439,"ECCENTRICITY":0.00041388,"INCLINATION":0.0697,"RA_OF_ASC_NODE":22.222,"ARG_OF_PERICENTER":357.1581,"MEAN_ANOMALY":245.7504,"EPHEMERIS_TYPE":0,"CLASSIFICATION_TYPE":"U","NORAD_CAT_ID":37775,"ELEMENT_SET_NO":999,"REV_AT_EPOCH":4348,"BSTAR":0,"MEAN_MOTION_DOT":1.11e-6,"MEAN_MOTION_DDOT":0},{"OBJECT_NAME":"BSAT-3C (JCSAT-110R)","OBJECT_ID":"2011-041B","EPOCH":"2026-03-05T00:49:41.053152","MEAN_MOTION":1.00270707,"ECCENTRICITY":7.989e-5,"INCLINATION":0.0324,"RA_OF_ASC_NODE":67.7035,"ARG_OF_PERICENTER":13.0602,"MEAN_ANOMALY":204.3875,"EPHEMERIS_TYPE":0,"CLASSIFICATION_TYPE":"U","NORAD_CAT_ID":37776,"ELEMENT_SET_NO":999,"REV_AT_EPOCH":4942,"BSTAR":0,"MEAN_MOTION_DOT":-3.6e-6,"MEAN_MOTION_DDOT":0},{"OBJECT_NAME":"PAKSAT-1R","OBJECT_ID":"2011-042A","EPOCH":"2026-03-05T04:41:38.722848","MEAN_MOTION":1.00278945,"ECCENTRICITY":0.00026213,"INCLINATION":0.4193,"RA_OF_ASC_NODE":85.7587,"ARG_OF_PERICENTER":306.5863,"MEAN_ANOMALY":239.0487,"EPHEMERIS_TYPE":0,"CLASSIFICATION_TYPE":"U","NORAD_CAT_ID":37779,"ELEMENT_SET_NO":999,"REV_AT_EPOCH":5343,"BSTAR":0,"MEAN_MOTION_DOT":1.45e-6,"MEAN_MOTION_DDOT":0},{"OBJECT_NAME":"BREEZE-M DEB [ADAPTOR]","OBJECT_ID":"2011-035E","EPOCH":"2026-03-03T20:47:27.451680","MEAN_MOTION":2.05987935,"ECCENTRICITY":0.6150943,"INCLINATION":24.2264,"RA_OF_ASC_NODE":80.2213,"ARG_OF_PERICENTER":146.6824,"MEAN_ANOMALY":280.9243,"EPHEMERIS_TYPE":0,"CLASSIFICATION_TYPE":"U","NORAD_CAT_ID":37787,"ELEMENT_SET_NO":999,"REV_AT_EPOCH":10795,"BSTAR":0,"MEAN_MOTION_DOT":-2.0e-8,"MEAN_MOTION_DDOT":0},{"OBJECT_NAME":"ZHONGXING-1A","OBJECT_ID":"2011-047A","EPOCH":"2026-03-05T06:29:53.431584","MEAN_MOTION":1.00029273,"ECCENTRICITY":0.00040863,"INCLINATION":3.4504,"RA_OF_ASC_NODE":79.6939,"ARG_OF_PERICENTER":263.7868,"MEAN_ANOMALY":139.5413,"EPHEMERIS_TYPE":0,"CLASSIFICATION_TYPE":"U","NORAD_CAT_ID":37804,"ELEMENT_SET_NO":999,"REV_AT_EPOCH":2629,"BSTAR":0,"MEAN_MOTION_DOT":1.06e-6,"MEAN_MOTION_DDOT":0},{"OBJECT_NAME":"COSMOS 2473","OBJECT_ID":"2011-048A","EPOCH":"2026-03-04T03:02:50.573472","MEAN_MOTION":1.00208542,"ECCENTRICITY":0.00052532,"INCLINATION":5.3103,"RA_OF_ASC_NODE":74.7835,"ARG_OF_PERICENTER":159.2985,"MEAN_ANOMALY":181.8603,"EPHEMERIS_TYPE":0,"CLASSIFICATION_TYPE":"U","NORAD_CAT_ID":37806,"ELEMENT_SET_NO":999,"REV_AT_EPOCH":641,"BSTAR":0,"MEAN_MOTION_DOT":1.22e-6,"MEAN_MOTION_DDOT":0},{"OBJECT_NAME":"BREEZE-M R/B","OBJECT_ID":"2011-048B","EPOCH":"2026-03-05T05:17:07.908288","MEAN_MOTION":1.04263293,"ECCENTRICITY":0.02282909,"INCLINATION":9.8648,"RA_OF_ASC_NODE":43.8504,"ARG_OF_PERICENTER":81.6693,"MEAN_ANOMALY":80.9769,"EPHEMERIS_TYPE":0,"CLASSIFICATION_TYPE":"U","NORAD_CAT_ID":37807,"ELEMENT_SET_NO":999,"REV_AT_EPOCH":5453,"BSTAR":0,"MEAN_MOTION_DOT":-1.24e-6,"MEAN_MOTION_DDOT":0},{"OBJECT_NAME":"SES-2","OBJECT_ID":"2011-049A","EPOCH":"2026-03-05T05:01:31.902528","MEAN_MOTION":1.00271998,"ECCENTRICITY":0.00029173,"INCLINATION":0.0213,"RA_OF_ASC_NODE":76.6861,"ARG_OF_PERICENTER":267.8196,"MEAN_ANOMALY":166.8077,"EPHEMERIS_TYPE":0,"CLASSIFICATION_TYPE":"U","NORAD_CAT_ID":37809,"ELEMENT_SET_NO":999,"REV_AT_EPOCH":5292,"BSTAR":0,"MEAN_MOTION_DOT":-2.04e-6,"MEAN_MOTION_DDOT":0},{"OBJECT_NAME":"ARABSAT-5C","OBJECT_ID":"2011-049B","EPOCH":"2026-03-04T17:50:15.049536","MEAN_MOTION":1.00274597,"ECCENTRICITY":0.00025203,"INCLINATION":0.0571,"RA_OF_ASC_NODE":352.084,"ARG_OF_PERICENTER":355.0894,"MEAN_ANOMALY":102.9006,"EPHEMERIS_TYPE":0,"CLASSIFICATION_TYPE":"U","NORAD_CAT_ID":37810,"ELEMENT_SET_NO":999,"REV_AT_EPOCH":5299,"BSTAR":0,"MEAN_MOTION_DOT":1.13e-6,"MEAN_MOTION_DDOT":0},{"OBJECT_NAME":"EUTELSAT 7 WEST A","OBJECT_ID":"2011-051A","EPOCH":"2026-03-05T05:24:14.726016","MEAN_MOTION":1.00272008,"ECCENTRICITY":0.00011242,"INCLINATION":0.0695,"RA_OF_ASC_NODE":10.338,"ARG_OF_PERICENTER":231.0199,"MEAN_ANOMALY":355.3386,"EPHEMERIS_TYPE":0,"CLASSIFICATION_TYPE":"U","NORAD_CAT_ID":37816,"ELEMENT_SET_NO":999,"REV_AT_EPOCH":5283,"BSTAR":0,"MEAN_MOTION_DOT":-6.9e-7,"MEAN_MOTION_DDOT":0},{"OBJECT_NAME":"QUETZSAT 1","OBJECT_ID":"2011-054A","EPOCH":"2026-03-05T06:47:06.779904","MEAN_MOTION":1.0027108,"ECCENTRICITY":0.00027828,"INCLINATION":0.0514,"RA_OF_ASC_NODE":290.9614,"ARG_OF_PERICENTER":71.0346,"MEAN_ANOMALY":185.7855,"EPHEMERIS_TYPE":0,"CLASSIFICATION_TYPE":"U","NORAD_CAT_ID":37826,"ELEMENT_SET_NO":999,"REV_AT_EPOCH":4883,"BSTAR":0,"MEAN_MOTION_DOT":-2.5e-6,"MEAN_MOTION_DDOT":0},{"OBJECT_NAME":"INTELSAT 18 (IS-18)","OBJECT_ID":"2011-056A","EPOCH":"2026-03-05T06:17:47.092704","MEAN_MOTION":1.00273962,"ECCENTRICITY":0.00019426,"INCLINATION":0.0414,"RA_OF_ASC_NODE":269.8463,"ARG_OF_PERICENTER":70.0367,"MEAN_ANOMALY":97.5393,"EPHEMERIS_TYPE":0,"CLASSIFICATION_TYPE":"U","NORAD_CAT_ID":37834,"ELEMENT_SET_NO":999,"REV_AT_EPOCH":5276,"BSTAR":0,"MEAN_MOTION_DOT":4.4e-7,"MEAN_MOTION_DDOT":0},{"OBJECT_NAME":"SL-23 R/B","OBJECT_ID":"2011-056B","EPOCH":"2026-03-03T17:46:48.063648","MEAN_MOTION":1.96794639,"ECCENTRICITY":0.56645081,"INCLINATION":19.6513,"RA_OF_ASC_NODE":336.0206,"ARG_OF_PERICENTER":241.3776,"MEAN_ANOMALY":50.9311,"EPHEMERIS_TYPE":0,"CLASSIFICATION_TYPE":"U","NORAD_CAT_ID":37835,"ELEMENT_SET_NO":999,"REV_AT_EPOCH":10359,"BSTAR":0,"MEAN_MOTION_DOT":-1.1e-6,"MEAN_MOTION_DDOT":0},{"OBJECT_NAME":"EUTELSAT 16A","OBJECT_ID":"2011-057A","EPOCH":"2026-03-05T05:30:51.592320","MEAN_MOTION":1.00271922,"ECCENTRICITY":0.00054779,"INCLINATION":0.0576,"RA_OF_ASC_NODE":355.0977,"ARG_OF_PERICENTER":351.1851,"MEAN_ANOMALY":275.3808,"EPHEMERIS_TYPE":0,"CLASSIFICATION_TYPE":"U","NORAD_CAT_ID":37836,"ELEMENT_SET_NO":999,"REV_AT_EPOCH":629,"BSTAR":0,"MEAN_MOTION_DOT":9.5e-7,"MEAN_MOTION_DDOT":0},{"OBJECT_NAME":"VIASAT-1","OBJECT_ID":"2011-059A","EPOCH":"2026-03-04T11:43:38.558208","MEAN_MOTION":1.00269201,"ECCENTRICITY":0.0002412,"INCLINATION":0.0244,"RA_OF_ASC_NODE":156.6576,"ARG_OF_PERICENTER":195.6319,"MEAN_ANOMALY":230.7489,"EPHEMERIS_TYPE":0,"CLASSIFICATION_TYPE":"U","NORAD_CAT_ID":37843,"ELEMENT_SET_NO":999,"REV_AT_EPOCH":4627,"BSTAR":0,"MEAN_MOTION_DOT":0,"MEAN_MOTION_DDOT":0},{"OBJECT_NAME":"ASIASAT 7","OBJECT_ID":"2011-069A","EPOCH":"2026-03-05T03:57:38.733696","MEAN_MOTION":1.00268394,"ECCENTRICITY":9.698e-5,"INCLINATION":0.0105,"RA_OF_ASC_NODE":149.4647,"ARG_OF_PERICENTER":192.6807,"MEAN_ANOMALY":345.6144,"EPHEMERIS_TYPE":0,"CLASSIFICATION_TYPE":"U","NORAD_CAT_ID":37933,"ELEMENT_SET_NO":999,"REV_AT_EPOCH":4381,"BSTAR":0,"MEAN_MOTION_DOT":-3.42e-6,"MEAN_MOTION_DDOT":0},{"OBJECT_NAME":"BEIDOU-2 IGSO-5","OBJECT_ID":"2011-073A","EPOCH":"2026-03-04T13:08:52.662336","MEAN_MOTION":1.00272598,"ECCENTRICITY":0.01085888,"INCLINATION":47.8676,"RA_OF_ASC_NODE":272.8369,"ARG_OF_PERICENTER":221.1171,"MEAN_ANOMALY":320.721,"EPHEMERIS_TYPE":0,"CLASSIFICATION_TYPE":"U","NORAD_CAT_ID":37948,"ELEMENT_SET_NO":999,"REV_AT_EPOCH":5208,"BSTAR":0,"MEAN_MOTION_DOT":-1.53e-6,"MEAN_MOTION_DDOT":0}]
